{
  "type": "FeatureCollection",
  "features": [
    {
      "type": "Feature",
      "properties": {
        "norad_id": 2807,
        "name": "OPS 7218 (TRANSIT 16)",
        "group": "nnss",
        "lat": 73.72448490684639,
        "lon": 172.45866611410833,
        "alt_km": 1047.9929116992125,
        "timestamp": "2025-12-25T22:42:17.279835+00:00",
        "meta_object_name": "OPS 7218 (TRANSIT 16)",
        "meta_object_id": "1967-048A",
        "meta_epoch": "2025-12-25T13:52:36.167232",
        "meta_mean_motion": 13.50724852,
        "meta_eccentricity": 0.0022141,
        "meta_inclination": 89.6734,
        "meta_ra_of_asc_node": 353.5902,
        "meta_arg_of_pericenter": 79.9207,
        "meta_mean_anomaly": 38.6228,
        "meta_ephemeris_type": 0,
        "meta_classification_type": "U",
        "meta_norad_cat_id": 2807,
        "meta_element_set_no": 999,
        "meta_rev_at_epoch": 88449,
        "meta_bstar": 0.00014159,
        "meta_mean_motion_dot": 1.02e-06,
        "meta_mean_motion_ddot": 0,
        "tle_line1": "1 02807U 67048A   25359.57819638  .00000102  00000+0  14159-3 0  9998",
        "tle_line2": "2 02807  89.6734 353.5902 0022141  79.9207  38.6228 13.50724852884496"
      },
      "geometry": {
        "type": "Point",
        "coordinates": [
          172.45866611410833,
          73.72448490684639
        ]
      }
    },
    {
      "type": "Feature",
      "properties": {
        "norad_id": 2965,
        "name": "OPS 4947 (TRANSIT 17)",
        "group": "nnss",
        "lat": -59.20530891506894,
        "lon": 22.1659133232972,
        "alt_km": 1075.9772461250923,
        "timestamp": "2025-12-25T22:42:17.279856+00:00",
        "meta_object_name": "OPS 4947 (TRANSIT 17)",
        "meta_object_id": "1967-092A",
        "meta_epoch": "2025-12-25T14:41:33.017280",
        "meta_mean_motion": 13.53456966,
        "meta_eccentricity": 0.0047171,
        "meta_inclination": 89.2485,
        "meta_ra_of_asc_node": 23.4532,
        "meta_arg_of_pericenter": 196.3512,
        "meta_mean_anomaly": 278.3032,
        "meta_ephemeris_type": 0,
        "meta_classification_type": "U",
        "meta_norad_cat_id": 2965,
        "meta_element_set_no": 999,
        "meta_rev_at_epoch": 87271,
        "meta_bstar": 0.00018696,
        "meta_mean_motion_dot": 1.38e-06,
        "meta_mean_motion_ddot": 0,
        "tle_line1": "1 02965U 67092A   25359.61218770  .00000138  00000+0  18696-3 0  9996",
        "tle_line2": "2 02965  89.2485  23.4532 0047171 196.3512 278.3032 13.53456966872714"
      },
      "geometry": {
        "type": "Point",
        "coordinates": [
          22.1659133232972,
          -59.20530891506894
        ]
      }
    },
    {
      "type": "Feature",
      "properties": {
        "norad_id": 3133,
        "name": "OPS 7034 (TRANSIT 18)",
        "group": "nnss",
        "lat": -0.9139319668930126,
        "lon": -86.3229439440151,
        "alt_km": 1106.7250750834055,
        "timestamp": "2025-12-25T22:42:17.279870+00:00",
        "meta_object_name": "OPS 7034 (TRANSIT 18)",
        "meta_object_id": "1968-012A",
        "meta_epoch": "2025-12-25T17:39:56.874816",
        "meta_mean_motion": 13.51568747,
        "meta_eccentricity": 0.0075022,
        "meta_inclination": 90.0284,
        "meta_ra_of_asc_node": 273.676,
        "meta_arg_of_pericenter": 131.825,
        "meta_mean_anomaly": 287.0423,
        "meta_ephemeris_type": 0,
        "meta_classification_type": "U",
        "meta_norad_cat_id": 3133,
        "meta_element_set_no": 999,
        "meta_rev_at_epoch": 57094,
        "meta_bstar": 0.0002121,
        "meta_mean_motion_dot": 1.51e-06,
        "meta_mean_motion_ddot": 0,
        "tle_line1": "1 03133U 68012A   25359.73607494  .00000151  00000+0  21210-3 0  9996",
        "tle_line2": "2 03133  90.0284 273.6760 0075022 131.8250 287.0423 13.51568747570940"
      },
      "geometry": {
        "type": "Point",
        "coordinates": [
          -86.3229439440151,
          -0.9139319668930126
        ]
      }
    },
    {
      "type": "Feature",
      "properties": {
        "norad_id": 4507,
        "name": "NNSS 19 (TRANSIT 19)",
        "group": "nnss",
        "lat": -38.93231084731569,
        "lon": -125.45339919223167,
        "alt_km": 1021.4343344674544,
        "timestamp": "2025-12-25T22:42:17.279881+00:00",
        "meta_object_name": "NNSS 19 (TRANSIT 19)",
        "meta_object_id": "1970-067A",
        "meta_epoch": "2025-12-25T17:33:54.763776",
        "meta_mean_motion": 13.51317732,
        "meta_eccentricity": 0.0170218,
        "meta_inclination": 90.0047,
        "meta_ra_of_asc_node": 234.5427,
        "meta_arg_of_pericenter": 255.346,
        "meta_mean_anomaly": 102.8768,
        "meta_ephemeris_type": 0,
        "meta_classification_type": "U",
        "meta_norad_cat_id": 4507,
        "meta_element_set_no": 999,
        "meta_rev_at_epoch": 72397,
        "meta_bstar": 0.00012964,
        "meta_mean_motion_dot": 1e-06,
        "meta_mean_motion_ddot": 0,
        "tle_line1": "1 04507U 70067A   25359.73188384  .00000100  00000+0  12964-3 0  9997",
        "tle_line2": "2 04507  90.0047 234.5427 0170218 255.3460 102.8768 13.51317732723972"
      },
      "geometry": {
        "type": "Point",
        "coordinates": [
          -125.45339919223167,
          -38.93231084731569
        ]
      }
    },
    {
      "type": "Feature",
      "properties": {
        "norad_id": 6909,
        "name": "NNSS 20 (TRANSIT 20)",
        "group": "nnss",
        "lat": -86.01179176505185,
        "lon": 76.92493726223663,
        "alt_km": 1079.6493164076646,
        "timestamp": "2025-12-25T22:42:17.279892+00:00",
        "meta_object_name": "NNSS 20 (TRANSIT 20)",
        "meta_object_id": "1973-081A",
        "meta_epoch": "2025-12-25T17:54:30.671712",
        "meta_mean_motion": 13.71441138,
        "meta_eccentricity": 0.0156091,
        "meta_inclination": 89.8559,
        "meta_ra_of_asc_node": 254.8594,
        "meta_arg_of_pericenter": 39.7617,
        "meta_mean_anomaly": 321.4863,
        "meta_ephemeris_type": 0,
        "meta_classification_type": "U",
        "meta_norad_cat_id": 6909,
        "meta_element_set_no": 999,
        "meta_rev_at_epoch": 80539,
        "meta_bstar": 0.00027867,
        "meta_mean_motion_dot": 2.84e-06,
        "meta_mean_motion_ddot": 0,
        "tle_line1": "1 06909U 73081A   25359.74618833  .00000284  00000+0  27867-3 0  9993",
        "tle_line2": "2 06909  89.8559 254.8594 0156091  39.7617 321.4863 13.71441138805397"
      },
      "geometry": {
        "type": "Point",
        "coordinates": [
          76.92493726223663,
          -86.01179176505185
        ]
      }
    },
    {
      "type": "Feature",
      "properties": {
        "norad_id": 10457,
        "name": "TRANSAT",
        "group": "nnss",
        "lat": -32.15682890452373,
        "lon": -101.64912519274151,
        "alt_km": 1072.282018563361,
        "timestamp": "2025-12-25T22:42:17.279903+00:00",
        "meta_object_name": "TRANSAT",
        "meta_object_id": "1977-106A",
        "meta_epoch": "2025-12-25T18:39:52.188768",
        "meta_mean_motion": 13.48945596,
        "meta_eccentricity": 0.0026569,
        "meta_inclination": 89.6475,
        "meta_ra_of_asc_node": 78.1351,
        "meta_arg_of_pericenter": 152.5856,
        "meta_mean_anomaly": 322.1693,
        "meta_ephemeris_type": 0,
        "meta_classification_type": "U",
        "meta_norad_cat_id": 10457,
        "meta_element_set_no": 999,
        "meta_rev_at_epoch": 36919,
        "meta_bstar": 0.00011911,
        "meta_mean_motion_dot": 8.5e-07,
        "meta_mean_motion_ddot": 0,
        "tle_line1": "1 10457U 77106A   25359.77768737  .00000085  00000+0  11911-3 0  9992",
        "tle_line2": "2 10457  89.6475  78.1351 0026569 152.5856 322.1693 13.48945596369191"
      },
      "geometry": {
        "type": "Point",
        "coordinates": [
          -101.64912519274151,
          -32.15682890452373
        ]
      }
    },
    {
      "type": "Feature",
      "properties": {
        "norad_id": 12458,
        "name": "NOVA 1",
        "group": "nnss",
        "lat": -25.501352496851666,
        "lon": 91.12810222351078,
        "alt_km": 1179.2134695691202,
        "timestamp": "2025-12-25T22:42:17.279914+00:00",
        "meta_object_name": "NOVA 1",
        "meta_object_id": "1981-044A",
        "meta_epoch": "2025-12-25T17:58:17.685120",
        "meta_mean_motion": 13.23279874,
        "meta_eccentricity": 0.0015708,
        "meta_inclination": 89.8525,
        "meta_ra_of_asc_node": 91.2013,
        "meta_arg_of_pericenter": 72.0128,
        "meta_mean_anomaly": 43.809,
        "meta_ephemeris_type": 0,
        "meta_classification_type": "U",
        "meta_norad_cat_id": 12458,
        "meta_element_set_no": 999,
        "meta_rev_at_epoch": 15358,
        "meta_bstar": 0.00013895,
        "meta_mean_motion_dot": 6.8e-07,
        "meta_mean_motion_ddot": 0,
        "tle_line1": "1 12458U 81044A   25359.74881580  .00000068  00000+0  13895-3 0  9994",
        "tle_line2": "2 12458  89.8525  91.2013 0015708  72.0128  43.8090 13.23279874153588"
      },
      "geometry": {
        "type": "Point",
        "coordinates": [
          91.12810222351078,
          -25.501352496851666
        ]
      }
    }
  ]
}